COSMOS 2433 (720)       
1 32275U 07052A   22249.29521111 -.00000077  00000+0  00000+0 0  9997
2 32275  66.0799   1.9901 0002943 202.0359 157.9018  2.13104340115687
COSMOS 2432 (719)       
1 32276U 07052B   22249.38539786 -.00000077  00000+0  00000+0 0  9995
2 32276  66.0923   2.0890 0007799 329.7015  47.5242  2.13103489115693
COSMOS 2434 (721)       
1 32393U 07065A   22249.91920307  .00000068  00000+0  00000+0 0  9990
2 32393  64.3739 238.6454 0000539 177.0783 191.4092  2.13103166114416
COSMOS 2436 (723)       
1 32395U 07065C   22249.35222839  .00000076  00000+0  00000+0 0  9994
2 32395  64.3830 238.7224 0014965 350.4726  78.8779  2.13102944114332
COSMOS 2456 (730)       
1 36111U 09070A   22249.42959112  .00000023  00000+0  00000+0 0  9993
2 36111  64.3717 118.2732 0002991 325.3477 191.9884  2.13099415 99066
COSMOS 2457 (733)       
1 36112U 09070B   22249.34099275  .00000023  00000+0  00000+0 0  9990
2 36112  64.3552 118.1497 0005199 156.3170  60.9788  2.13101630 99067
COSMOS 2461 (735)       
1 36401U 10007B   22249.49354775 -.00000078  00000+0  00000+0 0  9999
2 36401  65.9634   0.8098 0018806  10.6604 358.7502  2.13103832 97429
COSMOS 2460 (732)       
1 36402U 10007C   22249.54686714 -.00000079  00000+0  00000+0 0  9998
2 36402  65.9500   0.7564 0002087 131.2065 228.3192  2.13106540 97419
COSMOS 2464 (736)       
1 37139U 10041C   22249.62220806  .00000070  00000+0  00000+0 0  9999
2 37139  63.9736 237.6902 0028146   5.5558 352.7165  2.13100889 93471
COSMOS 2476 (744)       
1 37867U 11064A   22249.92521139  .00000026  00000+0  00000+0 0  9990
2 37867  64.6587 119.6443 0020808 234.5346 209.2036  2.13101933 84425
COSMOS 2477 (745)       
1 37868U 11064B   22249.58105002  .00000023  00000+0  00000+0 0  9997
2 37868  64.6659 119.7219 0018208 235.5052 122.2853  2.13101829 84362
COSMOS 2475 (743)       
1 37869U 11064C   22249.40158700  .00000022  00000+0  00000+0 0  9991
2 37869  64.6733 119.7363 0022350 254.5216 283.7084  2.13102216 84373
COSMOS 2485 (747)       
1 39155U 13019A   22249.29285791  .00000021  00000+0  00000+0 0  9990
2 39155  64.8211 120.1117 0021172 229.4602 133.5614  2.13102041 72880
COSMOS 2492 (754)       
1 39620U 14012A   22249.32122366 -.00000078  00000+0  00000+0 0  9996
2 39620  65.8351   0.4344 0010853 322.6436  96.5359  2.13103352 65837
COSMOS 2500 (755)       
1 40001U 14032A   22249.47454664 -.00000079  00000+0  00000+0 0  9999
2 40001  65.7732   0.2844 0007447 189.2374 206.0033  2.13102445 64052
COSMOS 2501 (702K)      
1 40315U 14075A   22249.31237521  .00000075  00000+0  00000+0 0  9993
2 40315  63.6806 238.3386 0019536 212.3825 226.8434  2.13101480 60458
COSMOS 2514 (751)       
1 41330U 16008A   22249.18875147 -.00000078  00000+0  00000+0 0  9990
2 41330  65.5743 359.9662 0011297 204.7180 155.2434  2.13102595 51216
COSMOS 2516 (753)       
1 41554U 16032A   22249.42999299  .00000074  00000+0  00000+0 0  9992
2 41554  63.9075 238.6334 0015012 216.4231 233.0064  2.13106492 48826
COSMOS 2522 (752)       
1 42939U 17055A   22249.47842718  .00000074  00000+0  00000+0 0  9994
2 42939  64.1405 239.0507 0010085 245.0193  97.0114  2.13102048 38579
COSMOS 2527 (756)       
1 43508U 18053A   22249.15721734  .00000020  00000+0  00000+0 0  9996
2 43508  64.9854 120.1330 0007523 224.6924 262.9993  2.13102585 32860
COSMOS 2529 (757)       
1 43687U 18086A   22249.79791897  .00000070  00000+0  00000+0 0  9992
2 43687  64.3552 239.3778 0011921 263.6116 279.0554  2.13102215 29890
COSMOS 2534 (758)       
1 44299U 19030A   22249.45133177  .00000076  00000+0  00000+0 0  9992
2 44299  64.4280 239.2823 0014239 281.5337 129.7565  2.13102015 25536
COSMOS 2544 (759)       
1 44850U 19088A   22249.25229537  .00000022  00000+0  16595+1 0  9990
2 44850  64.9677 119.9796 0011569 256.1456 347.8918  2.13102447 21293
COSMOS 2545 (760)       
1 45358U 20018A   22249.60364536 -.00000080  00000+0  00000+0 0  9995
2 45358  64.9130   0.4932 0008752 234.8241 128.1339  2.13102822 19260
COSMOS 2547 (705K)      
1 46805U 20075A   22249.45778083  .00000075  00000+0  00000+0 0  9998
2 46805  64.6522 238.7297 0008709 246.6657 217.5378  2.13102916 14506
COSMOS 2557 (706K)      
1 52984U 22075A   22249.48333031 -.00000079  00000+0  10000-3 0  9998
2 52984  64.8165   2.6978 0011005 278.5717  83.1897  2.13101936  1302
